[{"OBJECT_NAME":"TIANMU-1 21","OBJECT_ID":"2023-208C","EPOCH":"2026-03-09T21:48:13.065120","MEAN_MOTION":15.33041299,"ECCENTRICITY":0.00059807,"INCLINATION":97.4378,"RA_OF_ASC_NODE":187.7048,"ARG_OF_PERICENTER":317.2488,"MEAN_ANOMALY":42.8288,"EPHEMERIS_TYPE":0,"CLASSIFICATION_TYPE":"U","NORAD_CAT_ID":58662,"ELEMENT_SET_NO":999,"REV_AT_EPOCH":12234,"BSTAR":0.00040063782,"MEAN_MOTION_DOT":0.00012722,"MEAN_MOTION_DDOT":0},{"OBJECT_NAME":"STARLINK-35208","OBJECT_ID":"2025-223A","EPOCH":"2026-03-09T21:51:46.472256","MEAN_MOTION":15.30215673,"ECCENTRICITY":0.00012944,"INCLINATION":53.1569,"RA_OF_ASC_NODE":292.8564,"ARG_OF_PERICENTER":122.1307,"MEAN_ANOMALY":237.982,"EPHEMERIS_TYPE":0,"CLASSIFICATION_TYPE":"U","NORAD_CAT_ID":65854,"ELEMENT_SET_NO":999,"REV_AT_EPOCH":2424,"BSTAR":0.00086554385,"MEAN_MOTION_DOT":0.00025376,"MEAN_MOTION_DDOT":0}]
